OBJECT_NAME,OBJECT_ID,EPOCH,MEAN_MOTION,ECCENTRICITY,INCLINATION,RA_OF_ASC_NODE,ARG_OF_PERICENTER,MEAN_ANOMALY,EPHEMERIS_TYPE,CLASSIFICATION_TYPE,NORAD_CAT_ID,ELEMENT_SET_NO,REV_AT_EPOCH,BSTAR,MEAN_MOTION_DOT,MEAN_MOTION_DDOT
ASNARO-2,2018-007A,2026-05-11T13:49:15.168864,15.22395671,.00018246,97.3992,139.0721,88.4648,271.6798,0,U,43152,999,46184,.22611835E-3,.5154E-4,0
JILIN-1 07,2018-008E,2026-05-11T13:44:39.202080,15.34110180,.00084172,97.1800,152.4915,176.2434,183.8874,0,U,43159,999,45938,.16522393E-3,.5382E-4,0
JILIN-1 08,2018-008F,2026-05-11T13:13:02.848224,15.33225596,.00057676,97.1829,151.8217,186.2763,173.8408,0,U,43160,999,45933,.14054137E-3,.4437E-4,0
LEMUR-2-KADI,2018-014E,2026-05-11T13:05:47.613408,15.84187603,.00053147,97.4498,60.6219,104.0919,256.0942,0,U,43184,999,45526,.10740676E-2,.247515E-2,0
S-NET D,2018-014G,2026-05-11T05:55:36.901632,15.16319487,.00094389,97.5390,36.2732,137.3053,222.8914,0,U,43186,999,45316,.13759127E-3,.2601E-4,0
S-NET B,2018-014H,2026-05-11T10:56:09.440448,15.16291405,.00101751,97.5394,36.4663,133.2328,226.9756,0,U,43187,999,45319,.14248272E-3,.2694E-4,0
S-NET A,2018-014J,2026-05-11T07:29:17.434176,15.16326659,.00100543,97.5404,36.5253,134.1742,226.0319,0,U,43188,999,45317,.13884885E-3,.2626E-4,0
S-NET C,2018-014K,2026-05-11T12:36:28.953504,15.16282899,.00115758,97.5422,36.8063,128.0753,232.1525,0,U,43189,999,45175,.14475503E-3,.2739E-4,0
PAZ,2018-020A,2026-05-11T14:47:00.214080,15.19146193,.00017435,97.4460,139.5209,86.9677,273.1757,0,U,43215,999,45545,.6175377E-4,.123E-4,0
GOES 17,2018-022A,2026-05-11T12:16:30.942336,1.00272208,.00006763,0.8436,86.2135,326.4497,271.2842,0,U,43226,999,3005,0,-.171E-5,0
LKW-4,2018-025A,2026-05-11T09:45:11.717568,15.59464111,.00032284,97.6332,299.4906,89.9684,270.1942,0,U,43236,999,45429,.3359543E-3,.26526E-3,0
ZHUHAI-1 OVS-02,2018-040B,2026-05-11T14:41:07.759104,15.24530694,.00049302,97.0418,151.0207,53.0793,307.0896,0,U,43440,999,44714,.17847643E-3,.4327E-4,0
ZHUHAI-1 OHS-02,2018-040C,2026-05-11T14:48:24.059232,15.25341686,.00094476,97.0405,157.9287,14.3651,345.7854,0,U,43441,999,10870,.19264938E-3,.4795E-4,0
GAOFEN-6,2018-048A,2026-05-11T14:44:03.573600,14.76589659,.00106905,97.7774,195.6339,297.5198,62.4926,0,U,43484,999,42799,.1414943E-3,.939E-5,0
LUOJIA-1 01,2018-048B,2026-05-11T15:22:14.360736,14.87147023,.00076927,97.8097,210.4181,236.4209,123.6273,0,U,43485,999,42878,.20741553E-3,.1811E-4,0
PAKTES 1A,2018-056A,2026-05-11T14:59:23.421696,14.98897975,.00214279,98.1220,286.5677,230.6385,129.2939,0,U,43529,999,42644,.14351166E-3,.1676E-4,0
PRSS-1,2018-056B,2026-05-11T14:15:40.851648,14.81929353,.00017428,97.7828,200.4755,93.1914,266.9498,0,U,43530,999,42301,.42462996E-4,.285E-5,0
HAIYANG-1C,2018-068A,2026-05-11T14:49:12.430272,14.34167853,.00104193,98.5194,204.4516,197.0325,163.0511,0,U,43609,999,40184,.76509872E-4,.171E-5,0
SSTL S1-4,2018-071A,2026-05-11T13:44:35.009088,14.96197465,.0001171,97.5074,4.7002,58.5863,301.5474,0,U,43618,999,41746,.14678E-4,.111E-5,0
HAIYANG-2B,2018-081A,2026-05-11T14:29:01.003776,13.79305756,.00017521,99.3305,140.9110,53.0505,307.0807,0,U,43655,999,37988,.98228884E-4,.57E-6,0
CFOSAT,2018-083A,2026-05-11T14:28:13.190880,15.16472103,.00019647,97.3615,137.2100,63.5077,296.6358,0,U,43662,999,41689,.10434473E-3,.1966E-4,0
TEN-KOH,2018-084G,2026-05-11T12:05:33.411552,15.02774247,.00080516,98.0770,322.3277,236.6803,123.3650,0,U,43677,999,41065,.56736708E-4,.692E-5,0
DIWATA-2B,2018-084H,2026-05-11T14:56:38.599008,15.00268539,.00120404,98.1102,326.2650,297.3967,62.6030,0,U,43678,999,41073,.15571149E-3,.1887E-4,0
STARS-AO,2018-084J,2026-05-11T07:54:03.828672,15.16638187,.00008784,98.0547,343.0338,325.8537,34.2638,0,U,43679,999,41188,.2066629E-3,.3966E-4,0
AUTCUBE 2,2018-084K,2026-05-11T02:52:48.098496,15.09830621,.00094337,98.0747,335.3310,160.5987,199.5601,0,U,43681,999,41133,.17414191E-3,.2747E-4,0
METOP-C,2018-087A,2026-05-11T12:53:03.799392,14.21501803,.00002398,98.6664,191.8059,99.3282,260.7922,0,U,43689,999,38962,.45268213E-4,.56E-6,0
ES'HAIL 2,2018-090A,2026-05-11T06:11:49.401024,1.00273279,.00016297,0.0031,81.0741,3.2657,263.4945,0,U,43700,999,2730,0,.155E-5,0
MOHAMMED VI-B,2018-095A,2026-05-11T14:18:45.553248,14.77069415,.00013296,97.9559,204.4230,75.0975,285.0382,0,U,43717,999,40278,.66480209E-4,.418E-5,0
HYSIS,2018-096A,2026-05-11T14:26:39.978240,14.78617078,.00007836,97.9850,198.6330,93.8226,266.3074,0,U,43719,999,40201,.10621309E-3,.726E-5,0
