ASNARO-2                
1 43152U 18007A   26131.57587001  .00005154  00000+0  22612-3 0  9997
2 43152  97.3992 139.0721 0001824  88.4648 271.6798 15.22395671461846
JILIN-1 07              
1 43159U 18008E   26131.57267595  .00005382  00000+0  16522-3 0  9994
2 43159  97.1800 152.4915 0008417 176.2434 183.8874 15.34110180459385
JILIN-1 08              
1 43160U 18008F   26131.55072741  .00004437  00000+0  14054-3 0  9999
2 43160  97.1829 151.8217 0005767 186.2763 173.8408 15.33225596459331
LEMUR-2-KADI            
1 43184U 18014E   26131.54568997  .00247515  00000+0  10741-2 0  9998
2 43184  97.4498  60.6219 0005314 104.0919 256.0942 15.84187603455267
S-NET D                 
1 43186U 18014G   26131.24695488  .00002601  00000+0  13759-3 0  9991
2 43186  97.5390  36.2732 0009438 137.3053 222.8914 15.16319487453168
S-NET B                 
1 43187U 18014H   26131.45566482  .00002694  00000+0  14248-3 0  9992
2 43187  97.5394  36.4663 0010175 133.2328 226.9756 15.16291405453199
S-NET A                 
1 43188U 18014J   26131.31200734  .00002626  00000+0  13885-3 0  9994
2 43188  97.5404  36.5253 0010054 134.1742 226.0319 15.16326659453178
S-NET C                 
1 43189U 18014K   26131.52533511  .00002739  00000+0  14476-3 0  9992
2 43189  97.5422  36.8063 0011575 128.0753 232.1525 15.16282899451750
PAZ                     
1 43215U 18020A   26131.61597470  .00001230  00000+0  61754-4 0  9990
2 43215  97.4460 139.5209 0001743  86.9677 273.1757 15.19146193455459
GOES 17                 
1 43226U 18022A   26131.51146924 -.00000171  00000+0  00000+0 0  9993
2 43226   0.8436  86.2135 0000676 326.4497 271.2842  1.00272208 30055
LKW-4                   
1 43236U 18025A   26131.40638562  .00026526  00000+0  33595-3 0  9999
2 43236  97.6332 299.4906 0003228  89.9684 270.1942 15.59464111454294
ZHUHAI-1 OVS-02         
1 43440U 18040B   26131.61189536  .00004327  00000+0  17848-3 0  9996
2 43440  97.0418 151.0207 0004930  53.0793 307.0896 15.24530694447147
ZHUHAI-1 OHS-02         
1 43441U 18040C   26131.61694513  .00004795  00000+0  19265-3 0  9997
2 43441  97.0405 157.9287 0009447  14.3651 345.7854 15.25341686108709
GAOFEN-6                
1 43484U 18048A   26131.61393025  .00000939  00000+0  14149-3 0  9998
2 43484  97.7774 195.6339 0010690 297.5198  62.4926 14.76589659427999
LUOJIA-1 01             
1 43485U 18048B   26131.64044399  .00001811  00000+0  20742-3 0  9995
2 43485  97.8097 210.4181 0007692 236.4209 123.6273 14.87147023428783
PAKTES 1A               
1 43529U 18056A   26131.62457664  .00001676  00000+0  14351-3 0  9992
2 43529  98.1220 286.5677 0021427 230.6385 129.2939 14.98897975426443
PRSS-1                  
1 43530U 18056B   26131.59422282  .00000285  00000+0  42463-4 0  9999
2 43530  97.7828 200.4755 0001742  93.1914 266.9498 14.81929353423011
HAIYANG-1C              
1 43609U 18068A   26131.61750498  .00000171  00000+0  76510-4 0  9999
2 43609  98.5194 204.4516 0010419 197.0325 163.0511 14.34167853401840
SSTL S1-4               
1 43618U 18071A   26131.57262742  .00000111  00000+0  14678-4 0  9999
2 43618  97.5074   4.7002 0001171  58.5863 301.5474 14.96197465417462
HAIYANG-2B              
1 43655U 18081A   26131.60348384  .00000057  00000+0  98229-4 0  9995
2 43655  99.3305 140.9110 0001752  53.0505 307.0807 13.79305756379889
CFOSAT                  
1 43662U 18083A   26131.60293045  .00001966  00000+0  10434-3 0  9999
2 43662  97.3615 137.2100 0001964  63.5077 296.6358 15.16472103416893
TEN-KOH                 
1 43677U 18084G   26131.50385893  .00000692  00000+0  56737-4 0  9990
2 43677  98.0770 322.3277 0008051 236.6803 123.3650 15.02774247410653
DIWATA-2B               
1 43678U 18084H   26131.62266897  .00001887  00000+0  15571-3 0  9993
2 43678  98.1102 326.2650 0012040 297.3967  62.6030 15.00268539410736
STARS-AO                
1 43679U 18084J   26131.32921098  .00003966  00000+0  20666-3 0  9993
2 43679  98.0547 343.0338 0000878 325.8537  34.2638 15.16638187411888
AUTCUBE 2               
1 43681U 18084K   26131.12000114  .00002747  00000+0  17414-3 0  9994
2 43681  98.0747 335.3310 0009433 160.5987 199.5601 15.09830621411330
METOP-C                 
1 43689U 18087A   26131.53684953  .00000056  00000+0  45268-4 0  9999
2 43689  98.6664 191.8059 0000239  99.3282 260.7922 14.21501803389622
ES'HAIL 2               
1 43700U 18090A   26131.25821066  .00000155  00000+0  00000+0 0  9994
2 43700   0.0031  81.0741 0001629   3.2657 263.4945  1.00273279 27308
MOHAMMED VI-B           
1 43717U 18095A   26131.59636057  .00000418  00000+0  66480-4 0  9999
2 43717  97.9559 204.4230 0001329  75.0975 285.0382 14.77069415402784
HYSIS                   
1 43719U 18096A   26131.60185160  .00000726  00000+0  10621-3 0  9995
2 43719  97.9850 198.6330 0000783  93.8226 266.3074 14.78617078402016
